{
  "type": "FeatureCollection",
  "features": [
    {
      "type": "Feature",
      "properties": {
        "norad_id": 37238,
        "name": "INTELSAT 17 (IS-17)",
        "group": "intelsat",
        "lat": 0.028913477116171166,
        "lon": 33.169037357762285,
        "alt_km": 35794.18388681416,
        "timestamp": "2025-12-06T16:45:42.394228+00:00",
        "meta_object_name": "INTELSAT 17 (IS-17)",
        "meta_object_id": "2010-065B",
        "meta_epoch": "2025-12-06T03:42:28.738656",
        "meta_mean_motion": 1.0027159,
        "meta_eccentricity": 0.00024686,
        "meta_inclination": 0.0095,
        "meta_ra_of_asc_node": 300.8669,
        "meta_arg_of_pericenter": 311.7148,
        "meta_mean_anomaly": 304.2376,
        "meta_ephemeris_type": 0,
        "meta_classification_type": "U",
        "meta_norad_cat_id": 37238,
        "meta_element_set_no": 999,
        "meta_rev_at_epoch": 5131,
        "meta_bstar": 0,
        "meta_mean_motion_dot": 7e-08,
        "meta_mean_motion_ddot": 0,
        "tle_line1": "1 37238U 10065B   25340.15449929  .00000007  00000+0  00000+0 0  9997",
        "tle_line2": "2 37238   0.0095 300.8669 0002468 311.7148 304.2376  1.00271590 51316"
      },
      "geometry": {
        "type": "Point",
        "coordinates": [
          33.169037357762285,
          0.028913477116171166
        ]
      }
    },
    {
      "type": "Feature",
      "properties": {
        "norad_id": 37392,
        "name": "INTELSAT 28 (IS-28)",
        "group": "intelsat",
        "lat": -0.6783418656222839,
        "lon": -64.53385776389686,
        "alt_km": 35771.87761567093,
        "timestamp": "2025-12-06T16:45:42.394239+00:00",
        "meta_object_name": "INTELSAT 28 (IS-28)",
        "meta_object_id": "2011-016A",
        "meta_epoch": "2025-12-06T06:39:59.798880",
        "meta_mean_motion": 1.00270628,
        "meta_eccentricity": 0.00041679,
        "meta_inclination": 1.307,
        "meta_ra_of_asc_node": 85.1359,
        "meta_arg_of_pericenter": 176.4398,
        "meta_mean_anomaly": 242.0384,
        "meta_ephemeris_type": 0,
        "meta_classification_type": "U",
        "meta_norad_cat_id": 37392,
        "meta_element_set_no": 999,
        "meta_rev_at_epoch": 5135,
        "meta_bstar": 0,
        "meta_mean_motion_dot": -2.18e-06,
        "meta_mean_motion_ddot": 0,
        "tle_line1": "1 37392U 11016A   25340.27777545 -.00000218  00000+0  00000+0 0  9991",
        "tle_line2": "2 37392   1.3070  85.1359 0004167 176.4398 242.0384  1.00270628 51357"
      },
      "geometry": {
        "type": "Point",
        "coordinates": [
          -64.53385776389686,
          -0.6783418656222839
        ]
      }
    },
    {
      "type": "Feature",
      "properties": {
        "norad_id": 37834,
        "name": "INTELSAT 18 (IS-18)",
        "group": "intelsat",
        "lat": -0.0009197830801519463,
        "lon": 147.12587313557603,
        "alt_km": 35789.6763450965,
        "timestamp": "2025-12-06T16:45:42.394251+00:00",
        "meta_object_name": "INTELSAT 18 (IS-18)",
        "meta_object_id": "2011-056A",
        "meta_epoch": "2025-12-06T05:57:41.351328",
        "meta_mean_motion": 1.00271577,
        "meta_eccentricity": 0.00021436,
        "meta_inclination": 0.0152,
        "meta_ra_of_asc_node": 319.7729,
        "meta_arg_of_pericenter": 300.5326,
        "meta_mean_anomaly": 84.4065,
        "meta_ephemeris_type": 0,
        "meta_classification_type": "U",
        "meta_norad_cat_id": 37834,
        "meta_element_set_no": 999,
        "meta_rev_at_epoch": 5187,
        "meta_bstar": 0,
        "meta_mean_motion_dot": 6.1e-07,
        "meta_mean_motion_ddot": 0,
        "tle_line1": "1 37834U 11056A   25340.24839527  .00000061  00000+0  00000+0 0  9997",
        "tle_line2": "2 37834   0.0152 319.7729 0002143 300.5326  84.4065  1.00271577 51870"
      },
      "geometry": {
        "type": "Point",
        "coordinates": [
          147.12587313557603,
          -0.0009197830801519463
        ]
      }
    },
    {
      "type": "Feature",
      "properties": {
        "norad_id": 38098,
        "name": "INTELSAT 22 (IS-22)",
        "group": "intelsat",
        "lat": 0.013183397746433552,
        "lon": 39.27171307194828,
        "alt_km": 35791.383889423196,
        "timestamp": "2025-12-06T16:45:42.394264+00:00",
        "meta_object_name": "INTELSAT 22 (IS-22)",
        "meta_object_id": "2012-011A",
        "meta_epoch": "2025-12-06T03:44:06.083808",
        "meta_mean_motion": 1.00271075,
        "meta_eccentricity": 0.00017603,
        "meta_inclination": 0.0095,
        "meta_ra_of_asc_node": 36.761,
        "meta_arg_of_pericenter": 229.3287,
        "meta_mean_anomaly": 297.2433,
        "meta_ephemeris_type": 0,
        "meta_classification_type": "U",
        "meta_norad_cat_id": 38098,
        "meta_element_set_no": 999,
        "meta_rev_at_epoch": 525,
        "meta_bstar": 0,
        "meta_mean_motion_dot": -5e-07,
        "meta_mean_motion_ddot": 0,
        "tle_line1": "1 38098U 12011A   25340.15562597 -.00000050  00000+0  00000+0 0  9991",
        "tle_line2": "2 38098   0.0095  36.7610 0001760 229.3287 297.2433  1.00271075  5259"
      },
      "geometry": {
        "type": "Point",
        "coordinates": [
          39.27171307194828,
          0.013183397746433552
        ]
      }
    },
    {
      "type": "Feature",
      "properties": {
        "norad_id": 38356,
        "name": "INTELSAT 19 (IS-19)",
        "group": "intelsat",
        "lat": 0.01916735599418865,
        "lon": 133.12081792004167,
        "alt_km": 35795.976027700424,
        "timestamp": "2025-12-06T16:45:42.394291+00:00",
        "meta_object_name": "INTELSAT 19 (IS-19)",
        "meta_object_id": "2012-030A",
        "meta_epoch": "2025-12-06T07:18:38.626272",
        "meta_mean_motion": 1.00270189,
        "meta_eccentricity": 0.00035358,
        "meta_inclination": 0.0106,
        "meta_ra_of_asc_node": 354.9816,
        "meta_arg_of_pericenter": 267.3343,
        "meta_mean_anomaly": 88.696,
        "meta_ephemeris_type": 0,
        "meta_classification_type": "U",
        "meta_norad_cat_id": 38356,
        "meta_element_set_no": 999,
        "meta_rev_at_epoch": 4851,
        "meta_bstar": 0,
        "meta_mean_motion_dot": -4.9e-07,
        "meta_mean_motion_ddot": 0,
        "tle_line1": "1 38356U 12030A   25340.30461373 -.00000049  00000+0  00000+0 0  9994",
        "tle_line2": "2 38356   0.0106 354.9816 0003535 267.3343  88.6960  1.00270189 48517"
      },
      "geometry": {
        "type": "Point",
        "coordinates": [
          133.12081792004167,
          0.01916735599418865
        ]
      }
    },
    {
      "type": "Feature",
      "properties": {
        "norad_id": 38740,
        "name": "INTELSAT 20 (IS-20)",
        "group": "intelsat",
        "lat": 0.02219805460664866,
        "lon": 35.625335034354954,
        "alt_km": 35798.56302422608,
        "timestamp": "2025-12-06T16:45:42.394305+00:00",
        "meta_object_name": "INTELSAT 20 (IS-20)",
        "meta_object_id": "2012-043A",
        "meta_epoch": "2025-12-06T02:00:23.517792",
        "meta_mean_motion": 1.00270015,
        "meta_eccentricity": 0.000316,
        "meta_inclination": 0.0153,
        "meta_ra_of_asc_node": 13.4698,
        "meta_arg_of_pericenter": 176.6385,
        "meta_mean_anomaly": 343.6126,
        "meta_ephemeris_type": 0,
        "meta_classification_type": "U",
        "meta_norad_cat_id": 38740,
        "meta_element_set_no": 999,
        "meta_rev_at_epoch": 4881,
        "meta_bstar": 0,
        "meta_mean_motion_dot": 0,
        "meta_mean_motion_ddot": 0,
        "tle_line1": "1 38740U 12043A   25340.08360553  .00000000  00000+0  00000+0 0  9994",
        "tle_line2": "2 38740   0.0153  13.4698 0003160 176.6385 343.6126  1.00270015 48812"
      },
      "geometry": {
        "type": "Point",
        "coordinates": [
          35.625335034354954,
          0.02219805460664866
        ]
      }
    },
    {
      "type": "Feature",
      "properties": {
        "norad_id": 38749,
        "name": "INTELSAT 21 (IS-21)",
        "group": "intelsat",
        "lat": -0.03894850114396439,
        "lon": -90.83678458454398,
        "alt_km": 35777.13876878932,
        "timestamp": "2025-12-06T16:45:42.394318+00:00",
        "meta_object_name": "INTELSAT 21 (IS-21)",
        "meta_object_id": "2012-045A",
        "meta_epoch": "2025-12-06T07:38:07.595808",
        "meta_mean_motion": 1.00271311,
        "meta_eccentricity": 0.0002271,
        "meta_inclination": 0.0168,
        "meta_ra_of_asc_node": 337.0395,
        "meta_arg_of_pericenter": 273.5326,
        "meta_mean_anomaly": 241.3249,
        "meta_ephemeris_type": 0,
        "meta_classification_type": "U",
        "meta_norad_cat_id": 38749,
        "meta_element_set_no": 999,
        "meta_rev_at_epoch": 4859,
        "meta_bstar": 0,
        "meta_mean_motion_dot": -2.77e-06,
        "meta_mean_motion_ddot": 0,
        "tle_line1": "1 38749U 12045A   25340.31814347 -.00000277  00000+0  00000+0 0  9993",
        "tle_line2": "2 38749   0.0168 337.0395 0002271 273.5326 241.3249  1.00271311 48595"
      },
      "geometry": {
        "type": "Point",
        "coordinates": [
          -90.83678458454398,
          -0.03894850114396439
        ]
      }
    }
  ]
}